#cP2024  2 29 18  0  0.00000000     577 d+D   IGS20 EXT AIUB
## 2303 410400.00000000   300.00000000 60369 0.7500000000000
+   78   G01G02G03G04G05G06G07G08G09G10G11G12G13G14G15G16G17
+        G19G20G21G22G23G24G25G26G27G28G29G30G31G32R01R02R03
+        R04R05R07R08R09R11R12R13R14R15R16R17R18R19R20R21R22
+        R24R26E02E03E04E05E07E08E09E10E11E12E13E14E15E18E19
+        E21E24E25E26E27E30E31E33E34E36  0  0  0  0  0  0  0
++         8  7  5  6  7  8  7  6  6  6  7  7  7  5  7  7  7
++         7  7  7  7  6  7  5  7  7  6  7  6  7  6  8  7  8
++         7  7  7  7  6  7  6  8  7  6  7  8  8  8  9  8  6
++         8  8  6  7  7  7  7  7  6  7  6  6  7  6  6  7  6
++         6  6  6  7  6  5  6  7  6  7  0  0  0  0  0  0  0
%c M  cc GPS ccc cccc cccc cccc cccc ccccc ccccc ccccc ccccc
%c cc cc ccc ccc cccc cccc cccc cccc ccccc ccccc ccccc ccccc
%f  1.2500000  1.025000000  0.00000000000  0.000000000000000
%f  0.0000000  0.000000000  0.00000000000  0.000000000000000
%i    0    0    0    0      0      0      0      0         0
%i    0    0    0    0      0      0      0      0         0
/* Center for Orbit Determination in Europe (CODE)          
/* Ultra-rapid GRE orbits starting year-day 24060 18 hour   
/* Observed/predicted: 24/24 hours (data used up to 061R)   
/* PCV:IGS20      OL/AL:FES2014b NONE     YN ORB:CoN CLK:BRD
*  2024  2 29 23 45  0.00000000
PG01  23694.618015  12318.558044   1143.804648    171.720276
PG02  21281.399317  14283.559819  -6969.290363   -477.598349
PG03  11828.422101  16697.643390  16857.546543    224.434080
PG04  15704.687063   7120.676737  20252.929176    303.923246
PG05  -6530.877123 -24927.871597  -6399.972651   -163.681872
PG06  10342.314759 -10821.328567  22017.676841    387.041980
PG07  23923.478963   3851.946879 -10909.875427    -73.725293
PG08   8244.494058  13007.041753 -21730.658204     20.947974
PG09  23089.477877  -5111.270566  12068.732186    108.992193
PG10 -10882.806637  16642.200596 -17236.452124      1.032883
PG11  -2097.999056 -17331.575932  20054.313542   -592.274252
PG12 -10652.409045 -18003.984119  16117.219588   -482.830205
PG13   2330.840832 -16585.128538 -20762.535947    630.075767
PG14  13485.479929 -12756.208009 -18902.644008    338.773189
PG15  -9778.976608 -12697.401585 -21666.615974    132.889165
PG16   -102.572550  26272.406006  -1726.189818   -351.562024
PG17  23109.237925 -13255.697796    824.554705    715.315682
PG19  18646.686218 -16139.166013   9178.311739    447.621417
PG20   -360.982261 -25690.599361   7117.671329    385.632569
PG21  18066.239016  16186.837158 -11424.160611    133.099899
PG22  10441.990844 -20292.401444 -13403.049342     23.166484
PG23 -14556.423117   3558.057286 -21893.308131    166.973909
PG24 -19478.608485 -15817.488281  -9727.169924   -439.596732
PG25 -15018.021247  -7001.254178  20471.333169    490.052534
PG26  -4889.038086  23773.822472  10193.983531    184.776890
PG27  -4796.464713  18407.645944 -18631.355797     -8.233389
PG28 -12895.637381   9972.494084  20947.917401   -148.191253
PG29 -22855.214847   1670.188322  13462.749589   -605.892278
PG30  18156.485504  -5765.812470 -18481.866493   -425.962261
PG31  -3463.787555  15257.593286  21205.150131   -227.903380
PG32 -20796.742345  16050.501349   3259.917843   -614.040496
PR01 -14028.698328  21298.440336    791.785395     78.471286
PR02  -3983.862029  18701.273017  16897.264779    -22.532050
PR03   9123.992694   5926.665828  23124.006555     95.511427
PR04  16731.353567  -9701.479451  16674.041229    225.607122
PR05  15622.406163 -20143.750500   1239.847400    127.691890
PR07  -9586.415091  -5193.320220 -23012.634947     76.924022
PR08 -16734.747030  10022.412800 -16351.925474    -74.574525
PR09  -8021.574793 -23374.082314  -6141.209272    172.781885
PR11 -13092.549264  -3881.172100  21546.852724     32.730206
PR12  -3700.342480  15185.323645  20171.658100     37.296398
PR13   6406.520814  23177.967443   8482.334609    -44.850323
PR14  14290.222159  18101.057195 -10914.898181     26.128540
PR15  12717.107754   2400.634270 -21969.727737     81.770432
PR16   3675.917951 -14909.464918 -20355.397346     23.653627
PR17  21503.008942   7560.864757 -11409.015962     65.241773
PR18  25037.989224    723.593209   4993.693830    129.873681
PR19  17346.549616  -5456.202154  17891.005536   -267.697743
PR20  -4361.459552 -10868.181711  22663.091551   -109.048101
PR21 -21594.610030  -7630.431605  11250.030571    -80.926459
PR22 -24771.867118   -812.090859  -5964.827457    110.539089
PR24   5433.851112  11140.261166 -22275.381753    -45.947652
PR26 -16487.975545   9286.471054 -17091.498982   -195.773351
PE02  16467.830178  -5607.248041 -23963.224524    107.489117
PE03  26806.021360  -9901.663973   7698.352031    -97.162901
PE04 -18559.561986  20237.716322  11063.364236   -338.981380
PE05  19265.278714   6044.519004  21650.544810   4724.780306
PE07     17.086879 -18721.475352 -22917.277133   -106.423039
PE08  19136.625947 -20005.488320 -10459.505076   -231.728251
PE09   -217.947269  18665.840820  22979.484580   -354.057507
PE10    640.589164  17717.033851 -23707.198823   -605.788852
PE11  11689.379640  20055.719884 -18384.961995   3212.190401
PE12  -9359.895164  13140.409653 -24816.104375   -928.180777
PE13 -11049.507768 -19941.044302  18877.100225    -20.353936
PE14 -25892.544997  18350.900791  -4167.776032 999999.999999
PE15   9910.453873 -12725.851990  24828.589121    -88.623723
PE18  21226.551056 -11250.309719    -50.945696 999999.999999
PE19 -26740.166955   8178.772577  -9693.696981   -519.317704
PE21 -14364.270300 -15861.114985  20445.041034   -581.581933
PE24   3486.780796  29034.941531  -4517.117564   -625.910599
PE25  14232.800936  16237.357689 -20246.527810      1.538721
PE26 -25430.512238 -15078.992437   1366.172713    383.266973
PE27  -3785.496776 -28962.282114   4837.365604   -287.255328
PE30   9134.333758 -24673.411042 -13598.452038    -48.232425
PE31  -8896.116940  24826.884008  13431.897541    -17.162319
PE33 -24972.725961  -2272.916716 -15720.380622      8.347107
PE34  24746.585949   1788.049048  16142.348751    -97.418217
PE36  25220.405421  15385.257349  -1981.260869   -192.887989
EOF
